OBJECT_NAME,OBJECT_ID,EPOCH,MEAN_MOTION,ECCENTRICITY,INCLINATION,RA_OF_ASC_NODE,ARG_OF_PERICENTER,MEAN_ANOMALY,EPHEMERIS_TYPE,CLASSIFICATION_TYPE,NORAD_CAT_ID,ELEMENT_SET_NO,REV_AT_EPOCH,BSTAR,MEAN_MOTION_DOT,MEAN_MOTION_DDOT
GEOSCAN 3 (RS92S3),2025-155T,2026-07-05T08:56:13.581024,15.36056867,.00084927,97.4550,156.4690,112.9480,247.2660,0,U,64893,999,8364,.7018458E-3,.24641E-3,0
INNOSAT 3 (RS92S0),2025-155U,2026-07-05T09:19:56.146656,15.45244210,.0008289,97.4494,158.3379,112.2854,247.9274,0,U,64894,999,8377,.1191917E-2,.56976E-3,0
KNACKSAT-2,1998-067XZ,2026-07-05T08:13:05.850912,15.61655253,.0008318,51.6259,203.0471,292.9649,67.0466,0,U,67683,999,2311,.75157E-3,.66136E-3,0
