GEOSCAN-3 (RS92S3)
1 64893U 25155T   26186.37237941  .00024641  00000-0  70185-3 0  9998
2 64893  97.4550 156.4690 0008493 112.9480 247.2660 15.36056867 83647
INNOSAT3 (RS92S0)
1 64894U 25155U   26186.38884428  .00056976  00000-0  11919-2 0  9993
2 64894  97.4494 158.3379 0008289 112.2854 247.9274 15.45244210 83774
KNACKSAT-2
1 67683U 98067XZ  26186.34242883  .00066136  00000-0  75157-3 0  9997
2 67683  51.6259 203.0471 0008318 292.9649  67.0466 15.61655253 23113
